[{"OBJECT_NAME":"ONEWEB-0635","OBJECT_ID":"2023-043AG","EPOCH":"2026-03-09T23:10:09.413472","MEAN_MOTION":13.15547627,"ECCENTRICITY":0.0001302,"INCLINATION":87.8944,"RA_OF_ASC_NODE":278.9965,"ARG_OF_PERICENTER":93.5814,"MEAN_ANOMALY":266.5466,"EPHEMERIS_TYPE":0,"CLASSIFICATION_TYPE":"U","NORAD_CAT_ID":56076,"ELEMENT_SET_NO":999,"REV_AT_EPOCH":14338,"BSTAR":0.00013960334,"MEAN_MOTION_DOT":6.5e-7,"MEAN_MOTION_DDOT":0},{"OBJECT_NAME":"CZ-4C DEB","OBJECT_ID":"2009-072D","EPOCH":"2026-03-08T07:31:34.533696","MEAN_MOTION":13.46296443,"ECCENTRICITY":0.01568919,"INCLINATION":100.5128,"RA_OF_ASC_NODE":92.2361,"ARG_OF_PERICENTER":186.3002,"MEAN_ANOMALY":195.7608,"EPHEMERIS_TYPE":0,"CLASSIFICATION_TYPE":"U","NORAD_CAT_ID":38325,"ELEMENT_SET_NO":999,"REV_AT_EPOCH":62574,"BSTAR":4.6191617e-5,"MEAN_MOTION_DOT":-1.9e-7,"MEAN_MOTION_DDOT":0}]
